{
  "type": "FeatureCollection",
  "features": [
    {
      "type": "Feature",
      "properties": {
        "norad_id": 30882,
        "name": "FENGYUN 1C DEB",
        "group": "fengyun-1c-debris",
        "lat": -76.15828284718505,
        "lon": 178.62499401061527,
        "alt_km": 723.2610833336639,
        "timestamp": "2025-12-03T19:33:07.255362+00:00",
        "meta_object_name": "FENGYUN 1C DEB",
        "meta_object_id": "1999-025AXU",
        "meta_epoch": "2025-12-02T10:05:08.056032",
        "meta_mean_motion": 14.8637171,
        "meta_eccentricity": 0.01546312,
        "meta_inclination": 97.9451,
        "meta_ra_of_asc_node": 31.7588,
        "meta_arg_of_pericenter": 74.4841,
        "meta_mean_anomaly": 287.3388,
        "meta_ephemeris_type": 0,
        "meta_classification_type": "U",
        "meta_norad_cat_id": 30882,
        "meta_element_set_no": 999,
        "meta_rev_at_epoch": 99501,
        "meta_bstar": 0.0011000263,
        "meta_mean_motion_dot": 0.00012019,
        "meta_mean_motion_ddot": 0,
        "tle_line1": "1 30882U 99025AXU 25336.42023213  .00012019  00000+0  11000-2 0  9998",
        "tle_line2": "2 30882  97.9451  31.7588 0154631  74.4841 287.3388 14.86371710995019"
      },
      "geometry": {
        "type": "Point",
        "coordinates": [
          178.62499401061527,
          -76.15828284718505
        ]
      }
    },
    {
      "type": "Feature",
      "properties": {
        "norad_id": 30883,
        "name": "FENGYUN 1C DEB",
        "group": "fengyun-1c-debris",
        "lat": 67.01661692372721,
        "lon": -4.829196784808232,
        "alt_km": 916.8752887807532,
        "timestamp": "2025-12-03T19:33:07.255372+00:00",
        "meta_object_name": "FENGYUN 1C DEB",
        "meta_object_id": "1999-025AXV",
        "meta_epoch": "2025-12-02T21:45:33.352992",
        "meta_mean_motion": 14.14536044,
        "meta_eccentricity": 0.01114302,
        "meta_inclination": 98.3632,
        "meta_ra_of_asc_node": 14.6139,
        "meta_arg_of_pericenter": 242.4481,
        "meta_mean_anomaly": 244.9252,
        "meta_ephemeris_type": 0,
        "meta_classification_type": "U",
        "meta_norad_cat_id": 30883,
        "meta_element_set_no": 999,
        "meta_rev_at_epoch": 96778,
        "meta_bstar": 0.00025715885,
        "meta_mean_motion_dot": 4.83e-06,
        "meta_mean_motion_ddot": 0,
        "tle_line1": "1 30883U 99025AXV 25336.90663603  .00000483  00000+0  25716-3 0  9997",
        "tle_line2": "2 30883  98.3632  14.6139 0111430 242.4481 244.9252 14.14536044967781"
      },
      "geometry": {
        "type": "Point",
        "coordinates": [
          -4.829196784808232,
          67.01661692372721
        ]
      }
    },
    {
      "type": "Feature",
      "properties": {
        "norad_id": 30884,
        "name": "FENGYUN 1C DEB",
        "group": "fengyun-1c-debris",
        "lat": -61.535239324856605,
        "lon": -12.416408487410862,
        "alt_km": 638.9288949578877,
        "timestamp": "2025-12-03T19:33:07.255382+00:00",
        "meta_object_name": "FENGYUN 1C DEB",
        "meta_object_id": "1999-025AXW",
        "meta_epoch": "2025-12-03T05:09:42.861024",
        "meta_mean_motion": 14.73040174,
        "meta_eccentricity": 0.0068348,
        "meta_inclination": 98.8896,
        "meta_ra_of_asc_node": 330.1483,
        "meta_arg_of_pericenter": 5.4627,
        "meta_mean_anomaly": 354.7308,
        "meta_ephemeris_type": 0,
        "meta_classification_type": "U",
        "meta_norad_cat_id": 30884,
        "meta_element_set_no": 999,
        "meta_rev_at_epoch": 98521,
        "meta_bstar": 0.0026687,
        "meta_mean_motion_dot": 0.00017784,
        "meta_mean_motion_ddot": 0,
        "tle_line1": "1 30884U 99025AXW 25337.21507941  .00017784  00000+0  26687-2 0  9994",
        "tle_line2": "2 30884  98.8896 330.1483 0068348   5.4627 354.7308 14.73040174985214"
      },
      "geometry": {
        "type": "Point",
        "coordinates": [
          -12.416408487410862,
          -61.535239324856605
        ]
      }
    },
    {
      "type": "Feature",
      "properties": {
        "norad_id": 30885,
        "name": "FENGYUN 1C DEB",
        "group": "fengyun-1c-debris",
        "lat": 30.630857331849136,
        "lon": 172.3175689686279,
        "alt_km": 758.5762532930748,
        "timestamp": "2025-12-03T19:33:07.255393+00:00",
        "meta_object_name": "FENGYUN 1C DEB",
        "meta_object_id": "1999-025AXX",
        "meta_epoch": "2025-12-02T09:10:36.253920",
        "meta_mean_motion": 14.49082184,
        "meta_eccentricity": 0.005469,
        "meta_inclination": 99.0268,
        "meta_ra_of_asc_node": 176.1876,
        "meta_arg_of_pericenter": 250.5438,
        "meta_mean_anomaly": 232.5477,
        "meta_ephemeris_type": 0,
        "meta_classification_type": "U",
        "meta_norad_cat_id": 30885,
        "meta_element_set_no": 999,
        "meta_rev_at_epoch": 96827,
        "meta_bstar": 0.0033371764,
        "meta_mean_motion_dot": 0.0001289,
        "meta_mean_motion_ddot": 0,
        "tle_line1": "1 30885U 99025AXX 25336.38236405  .00012890  00000+0  33372-2 0  9998",
        "tle_line2": "2 30885  99.0268 176.1876 0054690 250.5438 232.5477 14.49082184968270"
      },
      "geometry": {
        "type": "Point",
        "coordinates": [
          172.3175689686279,
          30.630857331849136
        ]
      }
    },
    {
      "type": "Feature",
      "properties": {
        "norad_id": 30886,
        "name": "FENGYUN 1C DEB",
        "group": "fengyun-1c-debris",
        "lat": 53.9888118562073,
        "lon": -142.50891826931436,
        "alt_km": 785.4700743222147,
        "timestamp": "2025-12-03T19:33:07.255403+00:00",
        "meta_object_name": "FENGYUN 1C DEB",
        "meta_object_id": "1999-025AXY",
        "meta_epoch": "2025-12-03T04:06:16.414848",
        "meta_mean_motion": 14.22660188,
        "meta_eccentricity": 0.00358263,
        "meta_inclination": 99.2093,
        "meta_ra_of_asc_node": 229.7161,
        "meta_arg_of_pericenter": 60.55,
        "meta_mean_anomaly": 299.9243,
        "meta_ephemeris_type": 0,
        "meta_classification_type": "U",
        "meta_norad_cat_id": 30886,
        "meta_element_set_no": 999,
        "meta_rev_at_epoch": 96260,
        "meta_bstar": 0.0024083994,
        "meta_mean_motion_dot": 5.38e-05,
        "meta_mean_motion_ddot": 0,
        "tle_line1": "1 30886U 99025AXY 25337.17102332  .00005380  00000+0  24084-2 0  9994",
        "tle_line2": "2 30886  99.2093 229.7161 0035826  60.5500 299.9243 14.22660188962606"
      },
      "geometry": {
        "type": "Point",
        "coordinates": [
          -142.50891826931436,
          53.9888118562073
        ]
      }
    },
    {
      "type": "Feature",
      "properties": {
        "norad_id": 30887,
        "name": "FENGYUN 1C DEB",
        "group": "fengyun-1c-debris",
        "lat": 38.701375114022,
        "lon": 27.028568053880047,
        "alt_km": 716.37024257758,
        "timestamp": "2025-12-03T19:33:07.255413+00:00",
        "meta_object_name": "FENGYUN 1C DEB",
        "meta_object_id": "1999-025AXZ",
        "meta_epoch": "2025-12-03T02:45:13.514400",
        "meta_mean_motion": 14.44716488,
        "meta_eccentricity": 0.02641301,
        "meta_inclination": 98.3708,
        "meta_ra_of_asc_node": 33.1132,
        "meta_arg_of_pericenter": 317.1227,
        "meta_mean_anomaly": 40.9634,
        "meta_ephemeris_type": 0,
        "meta_classification_type": "U",
        "meta_norad_cat_id": 30887,
        "meta_element_set_no": 999,
        "meta_rev_at_epoch": 97989,
        "meta_bstar": 0.00075352778,
        "meta_mean_motion_dot": 3.959e-05,
        "meta_mean_motion_ddot": 0,
        "tle_line1": "1 30887U 99025AXZ 25337.11473975  .00003959  00000+0  75353-3 0  9999",
        "tle_line2": "2 30887  98.3708  33.1132 0264130 317.1227  40.9634 14.44716488979890"
      },
      "geometry": {
        "type": "Point",
        "coordinates": [
          27.028568053880047,
          38.701375114022
        ]
      }
    },
    {
      "type": "Feature",
      "properties": {
        "norad_id": 30888,
        "name": "FENGYUN 1C DEB",
        "group": "fengyun-1c-debris",
        "lat": 77.25604863133856,
        "lon": -92.85125721963784,
        "alt_km": 587.1050172511032,
        "timestamp": "2025-12-03T19:33:07.255423+00:00",
        "meta_object_name": "FENGYUN 1C DEB",
        "meta_object_id": "1999-025AYA",
        "meta_epoch": "2025-12-03T09:32:14.028576",
        "meta_mean_motion": 14.93532582,
        "meta_eccentricity": 0.0082945,
        "meta_inclination": 99.4816,
        "meta_ra_of_asc_node": 314.2886,
        "meta_arg_of_pericenter": 180.7417,
        "meta_mean_anomaly": 179.3688,
        "meta_ephemeris_type": 0,
        "meta_classification_type": "U",
        "meta_norad_cat_id": 30888,
        "meta_element_set_no": 999,
        "meta_rev_at_epoch": 99786,
        "meta_bstar": 0.0013325,
        "meta_mean_motion_dot": 0.00014962,
        "meta_mean_motion_ddot": 0,
        "tle_line1": "1 30888U 99025AYA 25337.39738459  .00014962  00000+0  13325-2 0  9997",
        "tle_line2": "2 30888  99.4816 314.2886 0082945 180.7417 179.3688 14.93532582997867"
      },
      "geometry": {
        "type": "Point",
        "coordinates": [
          -92.85125721963784,
          77.25604863133856
        ]
      }
    }
  ]
}